     2.10           G: GLONASS NAV DATA                     RINEX VERSION / TYPE
teqc  2015Jun23                         20210915 01:26:15UTCPGM / RUN BY / DATE
Linux 2.4.21-27.ELsmp|Opteron|gcc -static|Linux x86_64|=+   COMMENT
  2021     8    22   -9.313225746155D-10                    CORR TO SYSTEM TIME
                                                            END OF HEADER
 7 21  8 23 14 45  0.0-4.155654460192D-05 0.000000000000D+00 5.220000000000D+04
   -5.459004882812D+03-6.975965499878D-01-3.725290298462D-09 0.000000000000D+00
    2.168237207031D+04 1.529752731323D+00-0.000000000000D+00 5.000000000000D+00
    1.226920410156D+04-3.026284217834D+00-1.862645149231D-09 0.000000000000D+00
10 21  8 23 14 45  0.0-7.424782961607D-05-0.000000000000D+00 5.220000000000D+04
    6.046801269531D+03-8.032007217407D-01-9.313225746155D-10 0.000000000000D+00
    2.129111328125D+04-1.537787437439D+00-1.862645149231D-09-7.000000000000D+00
    1.262041748047D+04 2.985000610352D+00-1.862645149231D-09 0.000000000000D+00
21 21  8 23 14 45  0.0-2.337023615837D-04-2.728484105319D-12 5.301000000000D+04
    7.195214843750D+02-3.187739372253D+00-2.793967723846D-09 0.000000000000D+00
    1.045917431641D+04 1.655006408691D-02 0.000000000000D+00 4.000000000000D+00
   -2.325864062500D+04-9.435367584229D-02 1.862645149231D-09 0.000000000000D+00
 8 21  8 23 14 45  0.0-6.054155528545D-05 0.000000000000D+00 5.358000000000D+04
    5.834342285156D+03-1.440536499023D+00 0.000000000000D+00 0.000000000000D+00
    1.116762109375D+04 2.665972709656D+00-1.862645149231D-09 6.000000000000D+00
    2.222705273438D+04-9.656066894531D-01-1.862645149231D-09 0.000000000000D+00
 6 21  8 23 15 15  0.0 2.037426456809D-04 0.000000000000D+00 5.400000000000D+04
   -1.265835156250D+04 6.272506713867D-01-5.587935447693D-09 0.000000000000D+00
    1.937957177734D+04-1.328969001770D+00 2.793967723846D-09-4.000000000000D+00
   -1.070431933594D+04-3.153473854065D+00-0.000000000000D+00 0.000000000000D+00
10 21  8 23 15 15  0.0-7.424876093864D-05-0.000000000000D+00 5.400000000000D+04
    4.036378417969D+03-1.435683250427D+00-9.313225746155D-10 0.000000000000D+00
    1.814453759766D+04-1.912765502930D+00-9.313225746155D-10-7.000000000000D+00
    1.743428906250D+04 2.328997612000D+00-1.862645149231D-09 0.000000000000D+00
 7 21  8 23 15 15  0.0-4.155654460192D-05-0.000000000000D+00 5.400000000000D+04
   -6.225266601562D+03-1.783761978149D-01-4.656612873077D-09 0.000000000000D+00
    2.387430566406D+04 8.703804016113D-01 9.313225746155D-10 5.000000000000D+00
    6.417570800781D+03-3.433350563049D+00-1.862645149231D-09 0.000000000000D+00
 8 21  8 23 15 15  0.0-6.053596735001D-05 0.000000000000D+00 5.400000000000D+04
    3.713842285156D+03-9.100809097290D-01-9.313225746155D-10 0.000000000000D+00
    1.588157226562D+04 2.522027015686D+00-9.313225746155D-10 6.000000000000D+00
    1.965611621094D+04-1.872683525085D+00-1.862645149231D-09 0.000000000000D+00
21 21  8 23 15 15  0.0-2.337070181966D-04-2.728484105319D-12 5.400000000000D+04
   -4.940762695312D+03-3.049130439758D+00-3.725290298462D-09 0.000000000000D+00
    1.091849121094D+04 4.851837158203D-01 1.862645149231D-09 4.000000000000D+00
   -2.252794775391D+04 9.008741378784D-01 1.862645149231D-09 0.000000000000D+00
20 21  8 23 15 15  0.0-5.464162677526D-05-0.000000000000D+00 5.499000000000D+04
   -2.221358593750D+04-1.385717391968D+00-3.725290298462D-09 0.000000000000D+00
    7.043764648438D+03 3.819322586060D-01 4.656612873077D-09 2.000000000000D+00
   -1.033291748047D+04 3.241466522217D+00-0.000000000000D+00 0.000000000000D+00
 6 21  8 23 15 45  0.0 2.037435770035D-04 0.000000000000D+00 5.580000000000D+04
   -1.153389746094D+04 5.820446014404D-01-4.656612873077D-09 0.000000000000D+00
    1.627846386719D+04-2.097199440002D+00 3.725290298462D-09-4.000000000000D+00
   -1.589316503906D+04-2.574517250061D+00 0.000000000000D+00 0.000000000000D+00
20 21  8 23 15 45  0.0-5.464348942041D-05-9.094947017729D-13 5.580000000000D+04
   -2.391675341797D+04-4.971275329590D-01-2.793967723846D-09 0.000000000000D+00
    7.768648925781D+03 3.803968429565D-01 4.656612873077D-09 2.000000000000D+00
   -4.173522460938D+03 3.557779312134D+00-9.313225746155D-10 0.000000000000D+00
 7 21  8 23 15 45  0.0-4.155654460192D-05-0.000000000000D+00 5.580000000000D+04
   -6.212855468750D+03 1.558847427368D-01-4.656612873077D-09 0.000000000000D+00
    2.471506396484D+04 4.418087005615D-02 1.862645149231D-09 5.000000000000D+00
    6.892285156250D+01-3.574811935425D+00-9.313225746155D-10 0.000000000000D+00
 8 21  8 23 15 45  0.0-6.053596735001D-05 0.000000000000D+00 5.580000000000D+04
    2.544939941406D+03-4.012413024902D-01-2.793967723846D-09 0.000000000000D+00
    2.007191503906D+04 2.087945938110D+00-0.000000000000D+00 6.000000000000D+00
    1.557153710938D+04-2.636543273926D+00-1.862645149231D-09 0.000000000000D+00
10 21  8 23 15 45  0.0-7.424969226122D-05-0.000000000000D+00 5.580000000000D+04
    8.936596679688D+02-2.042628288269D+00-9.313225746155D-10 0.000000000000D+00
    1.457452832031D+04-2.007021903992D+00-0.000000000000D+00-7.000000000000D+00
    2.089662402344D+04 1.493154525757D+00-2.793967723846D-09 0.000000000000D+00
21 21  8 23 15 45  0.0-2.337116748095D-04-2.728484105319D-12 5.580000000000D+04
   -1.007982714844D+04-2.616155624390D+00-3.725290298462D-09 0.000000000000D+00
    1.214271826172D+04 8.492326736450D-01 3.725290298462D-09 4.000000000000D+00
   -2.005763183594D+04 1.826058387756D+00 9.313225746155D-10 0.000000000000D+00
 6 21  8 23 16 15  0.0 2.037454396486D-04 0.000000000000D+00 5.760000000000D+04
   -1.069352929688D+04 3.205823898315D-01-2.793967723846D-09 0.000000000000D+00
    1.193099560547D+04-2.697346687317D+00 3.725290298462D-09-4.000000000000D+00
   -1.985308593750D+04-1.796914100647D+00 9.313225746155D-10 0.000000000000D+00
20 21  8 23 16 15  0.0-5.464535206556D-05-9.094947017729D-13 5.760000000000D+04
   -2.400574267578D+04 3.873882293701D-01-9.313225746155D-10 0.000000000000D+00
    8.257894531250D+03 1.216297149658D-01 4.656612873077D-09 2.000000000000D+00
    2.309256347656D+03 3.598431587219D+00-1.862645149231D-09 0.000000000000D+00
 7 21  8 23 16 15  0.0-4.155654460192D-05-0.000000000000D+00 5.760000000000D+04
   -5.806222656250D+03 2.547340393066D-01-4.656612873077D-09 0.000000000000D+00
    2.399655859375D+04-8.429565429688D-01 3.725290298462D-09 5.000000000000D+00
   -6.284989257812D+03-3.439068794250D+00-9.313225746155D-10 0.000000000000D+00
 8 21  8 23 16 15  0.0-6.053503602743D-05-0.000000000000D+00 5.760000000000D+04
    2.195111328125D+03-1.535129547119D-02-2.793967723846D-09 0.000000000000D+00
    2.325007128906D+04 1.408333778381D+00 9.313225746155D-10 6.000000000000D+00
    1.028627587891D+04-3.198057174683D+00-1.862645149231D-09 0.000000000000D+00
21 21  8 23 16 15  0.0-2.337172627449D-04-2.728484105319D-12 5.760000000000D+04
   -1.422120996094D+04-1.954792022705D+00-2.793967723846D-09 0.000000000000D+00
    1.385765429688D+04 1.017634391785D+00 4.656612873077D-09 4.000000000000D+00
   -1.603911328125D+04 2.609985351562D+00 0.000000000000D+00 0.000000000000D+00
10 21  8 23 16 15  0.0-7.425062358379D-05-0.000000000000D+00 5.772000000000D+04
   -3.236174804688D+03-2.515338897705D+00-0.000000000000D+00 0.000000000000D+00
    1.107921582031D+04-1.836128234863D+00 0.000000000000D+00-7.000000000000D+00
    2.274068115234D+04 5.426626205444D-01-2.793967723846D-09 0.000000000000D+00
 1 21  8 23 16 15  0.0 8.427351713181D-05 0.000000000000D+00 5.895000000000D+04
    8.998461914062D+03-2.052755355835D-01-9.313225746155D-10 0.000000000000D+00
    1.158006396484D+04 2.850513458252D+00-9.313225746155D-10 1.000000000000D+00
    2.087295068359D+04-1.491474151611D+00-1.862645149231D-09 0.000000000000D+00
 6 21  8 23 16 45  0.0 2.037463709712D-04 0.000000000000D+00 5.940000000000D+04
   -1.046727490234D+04-8.578968048096D-02-9.313225746155D-10 0.000000000000D+00
    6.719914550781D+03-3.045606613159D+00 3.725290298462D-09-4.000000000000D+00
   -2.227883984375D+04-8.809719085693D-01 1.862645149231D-09 0.000000000000D+00
20 21  8 23 16 45  0.0-5.464721471071D-05-0.000000000000D+00 5.940000000000D+04
   -2.259561083984D+04 1.150209426880D+00-0.000000000000D+00 0.000000000000D+00
    8.070766601562D+03-3.619623184204D-01 3.725290298462D-09 2.000000000000D+00
    8.613111816406D+03 3.360284805298D+00-1.862645149231D-09 0.000000000000D+00
 1 21  8 23 16 45  0.0 8.427444845438D-05 0.000000000000D+00 5.940000000000D+04
    8.999872558594D+03 1.861305236816D-01-1.862645149231D-09 0.000000000000D+00
    1.632571972656D+04 2.378611564636D+00-0.000000000000D+00 1.000000000000D+00
    1.741635986328D+04-2.324234008789D+00-1.862645149231D-09 0.000000000000D+00
 7 21  8 23 16 45  0.0-4.155747592449D-05-0.000000000000D+00 5.940000000000D+04
   -5.442002929688D+03 1.114587783813D-01-3.725290298462D-09 0.000000000000D+00
    2.171446728516D+04-1.673604011536D+00 4.656612873077D-09 5.000000000000D+00
   -1.215103857422D+04-3.036228179932D+00 0.000000000000D+00 0.000000000000D+00
 8 21  8 23 16 45  0.0-6.053596735001D-05-0.000000000000D+00 5.940000000000D+04
    2.368853027344D+03 1.704406738281D-01-3.725290298462D-09 0.000000000000D+00
    2.504399511719D+04 5.663938522339D-01 2.793967723846D-09 6.000000000000D+00
    4.206687988281D+03-3.513275146484D+00-1.862645149231D-09 0.000000000000D+00
21 21  8 23 16 45  0.0-2.337219193578D-04-2.728484105319D-12 5.940000000000D+04
   -1.703924902344D+04-1.164297103882D+00-1.862645149231D-09 0.000000000000D+00
    1.565346337891D+04 9.329614639282D-01 5.587935447693D-09 4.000000000000D+00
   -1.078292578125D+04 3.192365646362D+00-0.000000000000D+00 0.000000000000D+00
22 21  8 23 16 45  0.0-1.293905079365D-04-1.818989403546D-12 6.075000000000D+04
   -2.727887695312D+03-2.552839279175D+00-2.793967723846D-09 0.000000000000D+00
    1.284362451172D+04 1.571967124939D+00 2.793967723846D-09-3.000000000000D+00
   -2.186918701172D+04 1.250525474548D+00 1.862645149231D-09 0.000000000000D+00
